{"spkid": "54135548", "covariance": {"elements": [{"units": null, "value": ".3519830390492292", "title": "eccentricity", "sigma": 1.33935826406144e-08, "name": "e", "label": "e"}, {"label": "q", "sigma": 1.856909832063e-08, "name": "q", "title": "perihelion distance", "value": ".9885763940913452", "units": "au"}, {"name": "tp", "sigma": 9.22248675948279e-06, "title": "time of perihelion passage", "value": "2459378.463159072776", "units": "TDB", "label": "tp"}, {"label": "node", "name": "om", "sigma": 1.35872370742052e-05, "units": "deg", "title": "longitude of the ascending node", "value": "295.2931570649681"}, {"label": "peri", "units": "deg", "title": "argument of perihelion", "value": "323.8808363961324", "name": "w", "sigma": 1.57137111772318e-05}, {"label": "i", "sigma": 2.70897631884647e-06, "name": "i", "title": "inclination", "value": "5.216898031022934", "units": "deg"}], "data": [["1.793880559509667E-16", "-2.334876298384657E-16", "-1.338882033516781E-14", "7.846343374671219E-15", "-3.503548390737088E-14", "3.884146906347887E-15"], ["-2.334876298384657E-16", "3.448114124412237E-16", "7.54351241759773E-15", "-1.09123891124107E-14", "4.080222807093174E-14", "-4.914054792624406E-15"], ["-1.338882033516781E-14", "7.54351241759773E-15", "8.505426202883528E-11", "-4.974115660468174E-12", "7.171648533169864E-11", "-3.021184643150386E-12"], ["7.846343374671219E-15", "-1.09123891124107E-14", "-4.974115660468174E-12", "1.846130113106559E-10", "-1.878471487630488E-10", "1.579259856299939E-11"], ["-3.503548390737088E-14", "4.080222807093174E-14", "7.171648533169864E-11", "-1.878471487630488E-10", "2.469207189614601E-10", "-1.844881428364931E-11"], ["3.884146906347887E-15", "-4.914054792624406E-15", "-3.021184643150386E-12", "1.579259856299939E-11", "-1.844881428364931E-11", "7.338552696070989E-12"]], "labels": ["e", "q", "tp", "node", "peri", "i"], "epoch": "2459225.5"}, "elements": [{"label": "e", "sigma": "1.3566E-8", "name": "e", "value": ".3512736219703173", "title": "eccentricity", "units": null}, {"name": "a", "sigma": "1.1548E-8", "units": "au", "title": "semi-major axis", "value": "1.523658271078254", "label": "a"}, {"label": "q", "name": "q", "sigma": "1.8702E-8", "units": "au", "title": "perihelion distance", "value": ".9884373115515646"}, {"units": "deg", "value": "5.25054675845283", "title": "inclination; angle with respect to x-y ecliptic plane", "name": "i", "sigma": "2.689E-6", "label": "i"}, {"label": "node", "name": "om", "sigma": "1.3616E-5", "value": "295.0767349292103", "title": "longitude of the ascending node", "units": "deg"}, {"sigma": "1.5573E-5", "name": "w", "value": "323.9807276209442", "title": "argument of perihelion", "units": "deg", "label": "peri"}, {"label": "M", "name": "ma", "sigma": "1.0177E-5", "units": "deg", "title": "mean anomaly", "value": "235.0120554763451"}, {"name": "tp", "sigma": "2.1892E-5", "units": "TDB", "value": "2461439.003860135223", "title": "time of perihelion passage", "label": "tp"}, {"label": "period", "value": "686.9573699760333", "title": "sidereal orbital period", "units": "d", "name": "per", "sigma": "7.8099E-6"}, {"label": "n", "name": "n", "sigma": "5.9579E-9", "units": "deg/d", "title": "mean motion", "value": ".5240499858274462"}, {"label": "Q", "name": "ad", "sigma": "1.5605E-8", "title": "aphelion distance", "value": "2.058879230604944", "units": "au"}], "epoch": "2461200.5"}